SatCatId,ObjectName,LaunchYear,OrbitalPeriod,LaunchMass,StatusCode,Inclination,Status,UcsData,OrbitClassEstimated,LaunchSiteCountry,Owner,UseType,Purpose,LaunchVehicleClass,TLE1,TLE2,MeanMotion,Eccentricity,OrbitClass
49144,STARLINK-3100,2021,96.11,260.0,+,70.0,Active,1,LEO,USA,USA,Commercial,Communications,Falcon,1 49144U 21082Q   24057.26381121  .00000715  00000+0  67682-4 0  9992,2 49144  70.0022   6.3657 0002777 267.5986  92.4855 14.98332859134775,14.98332859,0.0002777,LEO
49145,STARLINK-3119,2021,96.11,260.0,+,70.0,Active,1,LEO,USA,USA,Commercial,Communications,Falcon,1 49145U 21082R   24057.14651634  .00000952  00000+0  87543-4 0  9990,2 49145  70.0004 326.6578 0002801 271.1997  88.8841 14.98333134135735,14.98333134,0.0002801,LEO
49146,STARLINK-3116,2021,96.11,260.0,+,70.0,Active,1,LEO,USA,USA,Commercial,Communications,Falcon,1 49146U 21082S   24057.23436293  .00001847  00000+0  16246-3 0  9998,2 49146  70.0020 346.4543 0002743 260.2310  99.8540 14.98341541136414,14.98341541,0.0002743,LEO
49147,STARLINK-3071,2021,96.11,260.0,+,70.0,Active,1,LEO,USA,USA,Commercial,Communications,Falcon,1 49147U 21082T   24057.15903344  .00001335  00000+0  11961-3 0  9997,2 49147  70.0006 326.6434 0002739 271.3473  88.7373 14.98336119135747,14.98336119,0.0002739,LEO
49148,STARLINK-3048,2021,96.11,260.0,+,70.0,Active,1,LEO,USA,USA,Commercial,Communications,Falcon,1 49148U 21082U   24057.22602404  .00001769  00000+0  15598-3 0  9990,2 49148  70.0018 346.4540 0002591 267.1949  92.8914 14.98335226135257,14.98335226,0.0002591,LEO
49149,STARLINK-3053,2021,96.11,260.0,+,70.0,Active,1,LEO,USA,USA,Commercial,Communications,Falcon,1 49149U 21082V   24057.25963630  .00000816  00000+0  76144-4 0  9992,2 49149  70.0018   6.3795 0002824 262.2029  97.8809 14.98336839135963,14.98336839,0.0002824,LEO
49150,STARLINK-3104,2021,96.11,260.0,+,70.0,Active,1,LEO,USA,USA,Commercial,Communications,Falcon,1 49150U 21082W   24057.25546340  .00001536  00000+0  13645-3 0  9995,2 49150  70.0021   6.3953 0002807 261.1993  98.8848 14.98335469135966,14.98335469,0.0002807,LEO
49151,STARLINK-3102,2021,96.11,260.0,+,70.0,Active,1,LEO,USA,USA,Commercial,Communications,Falcon,1 49151U 21082X   24057.13817007  .00001280  00000+0  11507-3 0  9995,2 49151  70.0007 326.6862 0002706 266.5171  93.5678 14.98335992136935,14.98335992,0.0002706,LEO
49152,STARLINK-3081,2021,96.11,260.0,+,70.0,Active,1,LEO,USA,USA,Commercial,Communications,Falcon,1 49152U 21082Y   24057.17989227  .00002435  00000+0  21178-3 0  9992,2 49152  70.0021 326.5717 0002555 280.8165  79.2706 14.98337753136866,14.98337753,0.0002555,LEO
49153,STARLINK-3072,2021,96.11,260.0,+,70.0,Active,1,LEO,USA,USA,Commercial,Communications,Falcon,1 49153U 21082Z   24057.12982289  .00000931  00000+0  85790-4 0  9999,2 49153  70.0011 326.7132 0002681 262.6749  97.4105 14.98336589136945,14.98336589,0.0002681,LEO
49154,STARLINK-3068,2021,96.11,260.0,+,70.0,Active,1,LEO,USA,USA,Commercial,Communications,Falcon,1 49154U 21082AA  24057.22185101  .00001815  00000+0  15986-3 0  9990,2 49154  70.0017 346.4671 0002749 267.7308  92.3537 14.98336337136338,14.98336337,0.0002749,LEO
49155,STARLINK-3060,2021,96.11,260.0,+,70.0,Active,1,LEO,USA,USA,Commercial,Communications,Falcon,1 49155U 21082AB  24057.12565039  .00001432  00000+0  12780-3 0  9996,2 49155  70.0016 326.7266 0002718 255.3554 104.7303 14.98335684136817,14.98335684,0.0002718,LEO
49156,STARLINK-3085,2021,96.11,260.0,+,70.0,Active,1,LEO,USA,USA,Commercial,Communications,Falcon,1 49156U 21082AC  24057.17154636  .00002168  00000+0  18938-3 0  9997,2 49156  70.0013 326.6011 0002441 268.8977  91.1903 14.98338565136820,14.98338565,0.0002441,LEO
49157,STARLINK-3051,2021,96.11,260.0,+,70.0,Active,1,LEO,USA,USA,Commercial,Communications,Falcon,1 49157U 21082AD  24057.21767611  .00001883  00000+0  16556-3 0  9993,2 49157  70.0018 346.4831 0002747 263.2608  96.8238 14.98337778136351,14.98337778,0.0002747,LEO
49158,STARLINK-3083,2021,95.44,260.0,+,70.0,Active,1,LEO,USA,USA,Commercial,Communications,Falcon,1 49158U 21082AE  24057.20741062  .00049264  00000+0  31033-2 0  9996,2 49158  70.0005 341.6289 0005571 268.4818  91.5708 15.08887660136479,15.0888766,0.0005571,LEO
49159,STARLINK-3056,2021,96.11,260.0,+,70.0,Active,1,LEO,USA,USA,Commercial,Communications,Falcon,1 49159U 21082AF  24057.25129358  .00001061  00000+0  96731-4 0  9991,2 49159  70.0027   6.4085 0002696 267.1203  92.9648 14.98332383135868,14.98332383,0.0002696,LEO
49160,STARLINK-3095,2021,96.11,260.0,+,70.0,Active,1,LEO,USA,USA,Commercial,Communications,Falcon,1 49160U 21082AG  24057.23878235  .00002575  00000+0  22349-3 0  9990,2 49160  70.0018   6.4213 0002732 270.1560  89.9286 14.98335909135832,14.98335909,0.0002732,LEO
49161,STARLINK-3080,2021,96.11,260.0,+,70.0,Active,1,LEO,USA,USA,Commercial,Communications,Falcon,1 49161U 21082AH  24057.24295066  .00000320  00000+0  34611-4 0  9999,2 49161  70.0024   6.4081 0002807 265.4342  94.6496 14.98327504135840,14.98327504,0.0002807,LEO
49162,STARLINK-3082,2021,96.17,260.0,+,70.0,Active,1,LEO,USA,USA,Commercial,Communications,Falcon,1 49162U 21082AJ  24057.10510135  .00071088  00000+0  60611-2 0  9998,2 49162  70.0025   6.7868 0002410 245.0066 115.0842 14.97320752135902,14.97320752,0.000241,LEO
49163,STARLINK-3088,2021,96.11,260.0,+,70.0,Active,1,LEO,USA,USA,Commercial,Communications,Falcon,1 49163U 21082AK  24057.20933531  .00002144  00000+0  18744-3 0  9997,2 49163  70.0015 346.5106 0002784 270.5889  89.4951 14.98334179136413,14.98334179,0.0002784,LEO
49164,STARLINK-3106,2021,96.11,260.0,+,70.0,Active,1,LEO,USA,USA,Commercial,Communications,Falcon,1 49164U 21082AL  24057.20099442  .00000940  00000+0  86520-4 0  9992,2 49164  70.0015 346.5410 0002755 262.8759  97.2086 14.98332124136425,14.98332124,0.0002755,LEO
49165,STARLINK-3052,2021,96.11,260.0,+,70.0,Active,1,LEO,USA,USA,Commercial,Communications,Falcon,1 49165U 21082AM  24057.23460344  .00000951  00000+0  87440-4 0  9993,2 49165  70.0023   6.4636 0002916 266.8735  93.2091 14.98336495135969,14.98336495,0.0002916,LEO
49166,STARLINK-3089,2021,96.11,260.0,+,70.0,Active,1,LEO,USA,USA,Commercial,Communications,Falcon,1 49166U 21082AN  24057.20516514  .00001441  00000+0  12852-3 0  9991,2 49166  70.0013 346.5245 0002801 272.7082  87.3756 14.98332405136451,14.98332405,0.0002801,LEO
49167,STARLINK-3054,2021,96.11,260.0,+,70.0,Active,1,LEO,USA,USA,Commercial,Communications,Falcon,1 49167U 21082AP  24057.22626069 -.00000271  00000+0 -14911-4 0  9992,2 49167  70.0031   6.4659 0002282 260.7136  99.3765 14.98325993135965,14.98325993,0.0002282,LEO
49168,STARLINK-3101,2021,96.11,260.0,+,70.0,Active,1,LEO,USA,USA,Commercial,Communications,Falcon,1 49168U 21082AQ  24057.18846659  .00001539  00000+0  13673-3 0  9996,2 49168  70.0022 346.5532 0002710 264.8108  95.2742 14.98339411136459,14.98339411,0.000271,LEO
49169,STARLINK-3046,2021,96.11,260.0,+,70.0,Active,1,LEO,USA,USA,Commercial,Communications,Falcon,1 49169U 21082AR  24057.19681542  .00001768  00000+0  15585-3 0  9994,2 49169  70.0012 346.5549 0002933 267.0475  93.0348 14.98339378135253,14.98339378,0.0002933,LEO
49170,STARLINK-3074,2021,96.11,260.0,+,70.0,Active,1,LEO,USA,USA,Commercial,Communications,Falcon,1 49170U 21082AS  24057.26797718  .00002231  00000+0  19466-3 0  9995,2 49170  70.0018   6.3622 0002891 268.8337  91.2490 14.98339677134779,14.98339677,0.0002891,LEO
49171,STARLINK-3107,2021,96.11,260.0,+,70.0,Active,1,LEO,USA,USA,Commercial,Communications,Falcon,1 49171U 21082AT  24057.28884175  .00001416  00000+0  12642-3 0  9995,2 49171  70.0029   6.3231 0002584 262.9774  97.1091 14.98337745135932,14.98337745,0.0002584,LEO
49172,STARLINK-3091,2021,96.11,260.0,+,70.0,Active,1,LEO,USA,USA,Commercial,Communications,Falcon,1 49172U 21082AU  24057.23019569  .00001410  00000+0  12589-3 0  9992,2 49172  70.0022 346.4539 0002752 262.3511  97.7336 14.98335527135254,14.98335527,0.0002752,LEO
49173,STARLINK-3045,2021,96.11,260.0,+,70.0,Active,1,LEO,USA,USA,Commercial,Communications,Falcon,1 49173U 21082AV  24057.18429906  .00001797  00000+0  15832-3 0  9999,2 49173  70.0015 346.5687 0002748 267.4890  92.5955 14.98336448135256,14.98336448,0.0002748,LEO
49174,STARLINK-3047,2021,95.83,260.0,+,70.0,Active,1,LEO,USA,USA,Commercial,Communications,Falcon,1 49174U 21082AW  24057.17646579  .00015972  00000+0  11989-2 0  9994,2 49174  70.0006 344.4591 0004046 253.3199 106.7518 15.02687348136479,15.02687348,0.0004046,LEO
49175,STARLINK-3087,2021,96.11,260.0,+,70.0,Active,1,LEO,USA,USA,Commercial,Communications,Falcon,1 49175U 21082AX  24057.21350914  .00001433  00000+0  12787-3 0  9990,2 49175  70.0014 346.5081 0002752 268.4329  91.6515 14.98335332135251,14.98335332,0.0002752,LEO
49176,STARLINK-3069,2021,96.11,260.0,+,70.0,Active,1,LEO,USA,USA,Commercial,Communications,Falcon,1 49176U 21082AY  24057.20075484  .00001855  00000+0  16316-3 0  9996,2 49176  70.0012 326.5304 0002717 266.8668  93.2180 14.98339277135747,14.98339277,0.0002717,LEO
49177,STARLINK-3103,2021,96.11,260.0,+,70.0,Active,1,LEO,USA,USA,Commercial,Communications,Falcon,1 49177U 21082AZ  24057.15485893  .00001634  00000+0  14466-3 0  9999,2 49177  70.0006 326.6577 0002710 264.1435  95.9415 14.98336465136938,14.98336465,0.000271,LEO
49178,STARLINK-3086,2021,96.11,260.0,+,70.0,Active,1,LEO,USA,USA,Commercial,Communications,Falcon,1 49178U 21082BA  24057.24712145  .00003759  00000+0  32266-3 0  9991,2 49178  70.0024   6.4063 0002862 259.3788 100.7049 14.98329129135922,14.98329129,0.0002862,LEO
49179,STARLINK-3043,2021,96.11,260.0,+,70.0,Active,1,LEO,USA,USA,Commercial,Communications,Falcon,1 49179U 21082BB  24057.47615835 -.00001351  00000+0 -10552-3 0  9997,2 49179  70.0001 325.8313 0002741 280.8676  79.2175 14.98318471135787,14.98318471,0.0002741,LEO
